SKY MUSTER 2 (NBN1B)    
1 41794U 16060B   26164.79058817 -.00000234  00000+0  00000+0 0  9990
2 41794   0.0172 329.1034 0001300 108.0339 254.3815  1.00270260 35483
HIMAWARI-9              
1 41836U 16064A   26164.93238569 -.00000265  00000+0  00000+0 0  9995
2 41836   0.0479 148.3842 0000810 350.9423 239.3458  1.00270150 35175
SHIJIAN-17 (SJ-17)      
1 41838U 16065A   26164.57372861  .00000055  00000+0  00000+0 0  9998
2 41838   5.7434  72.6472 0001725  28.9634 248.0339  0.99853753 35167
GOES 16                 
1 41866U 16071A   26164.88370873 -.00000081  00000+0  00000+0 0  9991
2 41866   0.3323  85.5371 0000209 285.5683 104.5318  1.00270023 35077
TIANLIAN 1-04           
1 41869U 16072A   26164.79691487  .00000040  00000+0  00000+0 0  9996
2 41869   0.8593  82.9411 0042180  89.7476 193.1003  1.00270838 35268
WGS F8 (USA 272)        
1 41879U 16075A   26164.64904330  .00000000  00000+0  00000+0 0  9994
2 41879   0.0404  46.3222 0000138 306.5669 292.5424  1.00267042 34787
FENGYUN 4A              
1 41882U 16077A   26164.92900567 -.00000349  00000+0  00000+0 0  9996
2 41882   2.3131  80.3232 0008681 152.7745 127.3621  1.00270325 34893
ECHOSTAR 19             
1 41893U 16079A   26164.88526873 -.00000128  00000+0  00000+0 0  9994
2 41893   0.0122  31.6653 0001131  42.3819  49.7398  1.00269706 34670
JCSAT-110A (JCSAT-15)   
1 41903U 16082A   26164.75522257 -.00000340  00000+0  00000+0 0  9994
2 41903   0.0172 350.5270 0000522 142.0158 151.4726  1.00272042 34721
STAR ONE D1             
1 41904U 16082B   26164.88786874 -.00000201  00000+0  00000+0 0  9992
2 41904   0.0147  40.8094 0002288  53.6008  43.4257  1.00271769 34745
TJS-2                   
1 41911U 17001A   26164.95479957  .00000002  00000+0  00000+0 0  9999
2 41911   0.8249  85.3673 0000499  46.6165 180.5755  1.00272927 34685
SBIRS GEO-4 (USA 273)   
1 41937U 17004A   26164.91000192  .00000131  00000+0  00000+0 0  9990
2 41937   2.2367  43.1903 0001889  32.3908 175.1384  1.00271553 34568
HISPASAT 36W-1          
1 41942U 17006A   26164.68353678 -.00000234  00000+0  00000+0 0  9997
2 41942   0.0081 289.6717 0000959 157.3478  25.0602  1.00271132 34211
TELKOM 3S               
1 41944U 17007A   26164.92787900 -.00000353  00000+0  00000+0 0  9998
2 41944   0.0165  25.3197 0002066  51.9935 276.9637  1.00272425 34100
INTELSAT 32E (IS-32E)   
1 41945U 17007B   26164.75334862 -.00000258  00000+0  00000+0 0  9999
2 41945   0.0007 354.3537 0000892 319.2360 176.5049  1.00271604 34195
ECHOSTAR 23             
1 42070U 17014A   26164.88275538 -.00000047  00000+0  00000+0 0  9991
2 42070   0.0166 334.8340 0002024 109.3272  25.9297  1.00270989 33898
WGS F9 (USA 275)        
1 42075U 17016A   26164.90208032 -.00000087  00000+0  00000+0 0  9990
2 42075   0.0177 318.5601 0000283 329.9228 286.4717  1.00271085 33866
SES-10                  
1 42432U 17017A   26164.82000471 -.00000262  00000+0  00000+0 0  9991
2 42432   0.0206  31.5713 0002566  58.4262  40.4419  1.00270648 33726
CHINASAT 16 (SJ-13)     
1 42662U 17018A   26164.79870034 -.00000342  00000+0  00000+0 0  9992
2 42662   0.0979  91.8924 0004134 136.9021  71.3905  1.00270352 33713
KOREASAT 7              
1 42691U 17023A   26164.92744567 -.00000352  00000+0  00000+0 0  9997
2 42691   0.0241  13.7577 0000777  66.2957 271.9569  1.00272312 33336
SGDC                    
1 42692U 17023B   26164.48080485 -.00000238  00000+0  00000+0 0  9994
2 42692   0.0426  75.9524 0002487  15.6045 268.4782  1.00272339 33360
GSAT-9                  
1 42695U 17024A   26164.96174606  .00000000  00000+0  00000+0 0  9996
2 42695   0.0352  61.4299 0002575  25.7740 258.6840  1.00265178 33260
INMARSAT 5-F4           
1 42698U 17025A   26164.91565895  .00000085  00000+0  00000+0 0  9992
2 42698   0.0192  18.2017 0000599 347.5081 282.6319  1.00269664 33240
SES-15                  
1 42709U 17026A   26164.73636187  .00000071  00000+0  00000+0 0  9994
2 42709   0.0203 332.3233 0000347  57.9056   7.7445  1.00267372  7398
QZS-2 (MICHIBIKI-2)     
1 42738U 17028A   26160.53939596 -.00000147  00000+0  00000+0 0  9997
2 42738  39.4388 243.2674 0760581 269.1776  81.0235  1.00285994  7547
VIASAT-2                
1 42740U 17029A   26164.81939803 -.00000255  00000+0  00000+0 0  9997
2 42740   0.0174 298.3446 0000139  35.8451 153.0322  1.00270759 33177
EUTELSAT 172B           
1 42741U 17029B   26164.86724198  .00000004  00000+0  00000+0 0  9993
2 42741   0.0153  86.7525 0000173 167.6455 132.0093  1.00271455 33703
GSAT-19                 
1 42747U 17031A   26164.93216492  .00000135  00000+0  00000+0 0  9998
2 42747   0.0467 265.9556 0007127 160.0956 219.6277  1.00273385 33116
ECHOSTAR 21             
1 42749U 17032A   26164.90650034  .00000075  00000+0  00000+0 0  9995
2 42749   1.7711 355.4947 0002043  94.7450 148.5816  1.00272223 33064
BULGARIASAT-1           
1 42801U 17038A   26164.90485367  .00000021  00000+0  00000+0 0  9996
2 42801   0.0130 336.5426 0003250 119.2993 134.0196  1.00268876 32810
HELLAS-SAT 3            
1 42814U 17040A   26164.92435560  .00000162  00000+0  00000+0 0  9991
2 42814   0.0419  35.9046 0004754  16.1639 221.9214  1.00269507 32778
GSAT-17                 
1 42815U 17040B   26164.92302565 -.00000248  00000+0  00000+0 0  9996
2 42815   0.0170 312.6560 0002157 356.0184  19.3455  1.00270883 32758
