OBJECT_NAME,OBJECT_ID,EPOCH,MEAN_MOTION,ECCENTRICITY,INCLINATION,RA_OF_ASC_NODE,ARG_OF_PERICENTER,MEAN_ANOMALY,EPHEMERIS_TYPE,CLASSIFICATION_TYPE,NORAD_CAT_ID,ELEMENT_SET_NO,REV_AT_EPOCH,BSTAR,MEAN_MOTION_DOT,MEAN_MOTION_DDOT
SKY MUSTER 2 (NBN1B),2016-060B,2026-06-13T18:58:26.817888,1.00270260,.00013,0.0172,329.1034,108.0339,254.3815,0,U,41794,999,3548,0,-.234E-5,0
HIMAWARI-9,2016-064A,2026-06-13T22:22:38.123616,1.00270150,.00008102,0.0479,148.3842,350.9423,239.3458,0,U,41836,999,3517,0,-.265E-5,0
SHIJIAN-17 (SJ-17),2016-065A,2026-06-13T13:46:10.151904,0.99853753,.0001725,5.7434,72.6472,28.9634,248.0339,0,U,41838,999,3516,0,.55E-6,0
GOES 16,2016-071A,2026-06-13T21:12:32.434272,1.00270023,.00002097,0.3323,85.5371,285.5683,104.5318,0,U,41866,999,3507,0,-.81E-6,0
TIANLIAN 1-04,2016-072A,2026-06-13T19:07:33.444768,1.00270838,.00421804,0.8593,82.9411,89.7476,193.1003,0,U,41869,999,3526,0,.4E-6,0
WGS F8 (USA 272),2016-075A,2026-06-13T15:34:37.341120,1.00267042,.00001383,0.0404,46.3222,306.5669,292.5424,0,U,41879,999,3478,0,0,0
FENGYUN 4A,2016-077A,2026-06-13T22:17:46.089888,1.00270325,.00086811,2.3131,80.3232,152.7745,127.3621,0,U,41882,999,3489,0,-.349E-5,0
ECHOSTAR 19,2016-079A,2026-06-13T21:14:47.218272,1.00269706,.00011314,0.0122,31.6653,42.3819,49.7398,0,U,41893,999,3467,0,-.128E-5,0
JCSAT-110A (JCSAT-15),2016-082A,2026-06-13T18:07:31.230048,1.00272042,.00005222,0.0172,350.5270,142.0158,151.4726,0,U,41903,999,3472,0,-.34E-5,0
STAR ONE D1,2016-082B,2026-06-13T21:18:31.859136,1.00271769,.00022883,0.0147,40.8094,53.6008,43.4257,0,U,41904,999,3474,0,-.201E-5,0
TJS-2,2017-001A,2026-06-13T22:54:54.682848,1.00272927,.00004996,0.8249,85.3673,46.6165,180.5755,0,U,41911,999,3468,0,.2E-7,0
SBIRS GEO-4 (USA 273),2017-004A,2026-06-13T21:50:24.165888,1.00271553,.00018894,2.2367,43.1903,32.3908,175.1384,0,U,41937,999,3456,0,.131E-5,0
HISPASAT 36W-1,2017-006A,2026-06-13T16:24:17.577792,1.00271132,.00009593,0.0081,289.6717,157.3478,25.0602,0,U,41942,999,3421,0,-.234E-5,0
TELKOM 3S,2017-007A,2026-06-13T22:16:08.745600,1.00272425,.00020662,0.0165,25.3197,51.9935,276.9637,0,U,41944,999,3410,0,-.353E-5,0
INTELSAT 32E (IS-32E),2017-007B,2026-06-13T18:04:49.320768,1.00271604,.00008921,0.0007,354.3537,319.2360,176.5049,0,U,41945,999,3419,0,-.258E-5,0
ECHOSTAR 23,2017-014A,2026-06-13T21:11:10.064832,1.00270989,.00020248,0.0166,334.8340,109.3272,25.9297,0,U,42070,999,3389,0,-.47E-6,0
WGS F9 (USA 275),2017-016A,2026-06-13T21:38:59.739648,1.00271085,.00002838,0.0177,318.5601,329.9228,286.4717,0,U,42075,999,3386,0,-.87E-6,0
SES-10,2017-017A,2026-06-13T19:40:48.406944,1.00270648,.00025667,0.0206,31.5713,58.4262,40.4419,0,U,42432,999,3372,0,-.262E-5,0
CHINASAT 16 (SJ-13),2017-018A,2026-06-13T19:10:07.709376,1.00270352,.00041349,0.0979,91.8924,136.9021,71.3905,0,U,42662,999,3371,0,-.342E-5,0
KOREASAT 7,2017-023A,2026-06-13T22:15:31.305888,1.00272312,.0000777,0.0241,13.7577,66.2957,271.9569,0,U,42691,999,3333,0,-.352E-5,0
SGDC,2017-023B,2026-06-13T11:32:21.539040,1.00272339,.0002487,0.0426,75.9524,15.6045,268.4782,0,U,42692,999,3336,0,-.238E-5,0
GSAT-9,2017-024A,2026-06-13T23:04:54.859584,1.00265178,.00025753,0.0352,61.4299,25.7740,258.6840,0,U,42695,999,3326,0,0,0
INMARSAT 5-F4,2017-025A,2026-06-13T21:58:32.933280,1.00269664,.00005991,0.0192,18.2017,347.5081,282.6319,0,U,42698,999,3324,0,.85E-6,0
SES-15,2017-026A,2026-06-13T17:40:21.665568,1.00267372,.00003474,0.0203,332.3233,57.9056,7.7445,0,U,42709,999,739,0,.71E-6,0
QZS-2 (MICHIBIKI-2),2017-028A,2026-06-09T12:56:43.810944,1.00285994,.07605811,39.4388,243.2674,269.1776,81.0235,0,U,42738,999,754,0,-.147E-5,0
VIASAT-2,2017-029A,2026-06-13T19:39:55.989792,1.00270759,.00001397,0.0174,298.3446,35.8451,153.0322,0,U,42740,999,3317,0,-.255E-5,0
EUTELSAT 172B,2017-029B,2026-06-13T20:48:49.707072,1.00271455,.0000173,0.0153,86.7525,167.6455,132.0093,0,U,42741,999,3370,0,.4E-7,0
GSAT-19,2017-031A,2026-06-13T22:22:19.049088,1.00273385,.00071271,0.0467,265.9556,160.0956,219.6277,0,U,42747,999,3311,0,.135E-5,0
ECHOSTAR 21,2017-032A,2026-06-13T21:45:21.629376,1.00272223,.00020433,1.7711,355.4947,94.7450,148.5816,0,U,42749,999,3306,0,.75E-6,0
BULGARIASAT-1,2017-038A,2026-06-13T21:42:59.357088,1.00268876,.00032506,0.0130,336.5426,119.2993,134.0196,0,U,42801,999,3281,0,.21E-6,0
HELLAS-SAT 3,2017-040A,2026-06-13T22:11:04.323840,1.00269507,.00047547,0.0419,35.9046,16.1639,221.9214,0,U,42814,999,3277,0,.162E-5,0
GSAT-17,2017-040B,2026-06-13T22:09:09.416160,1.00270883,.0002157,0.0170,312.6560,356.0184,19.3455,0,U,42815,999,3275,0,-.248E-5,0
